ONEWEB-0156             
1 48052U 21025L   23341.53141549  .00000335  00000+0  88322-3 0  9990
2 48052  87.8984 143.8337 0001505  90.5772 269.5530 13.13471179132468
ONEWEB-0161             
1 48053U 21025M   23341.50443698  .00000048  00000+0  95930-4 0  9993
2 48053  87.8972 143.8444 0001733  98.6628 261.4697 13.13469278132380
ONEWEB-0158             
1 48054U 21025N   23342.45668062  .00000470  00000+0  12524-2 0  9998
2 48054  87.8987 143.6481 0001386  96.3807 263.7480 13.13470818132639
ONEWEB-0157             
1 48055U 21025P   23342.48046057 -.00000767  00000+0 -21356-2 0  9990
2 48055  87.8982 143.6603 0001730  92.0035 268.1293 13.13472422132588
ONEWEB-0162             
1 48056U 21025Q   23342.52014766  .00000394  00000+0  10430-2 0  9993
2 48056  87.8984 143.6512 0001533  92.7212 267.4092 13.13467434132536
ONEWEB-0155             
1 48057U 21025R   23342.46459374  .00000347  00000+0  91399-3 0  9997
2 48057  87.8986 143.6693 0001476  87.7352 272.3946 13.13470296132694
ONEWEB-0149             
1 48058U 21025S   23341.49492612 -.00000329  00000+0 -93634-3 0  9998
2 48058  87.8973 143.8580 0001834  87.9133 272.2206 13.13478448132364
ONEWEB-0148             
1 48059U 21025T   23341.53618204  .00000191  00000+0  48822-3 0  9995
2 48059  87.8982 143.8566 0002105  78.3881 281.7484 13.13460679132499
